UWE-4                   
1 43880U 18111E   24023.25305998  .00011075  00000+0  76015-3 0  9992
2 43880  97.6238 290.3608 0018774 140.5215 219.7384 15.06014771277443
JAISAT-1                
1 44419U 19038F   24023.48723038  .00072490  00000+0  13472-2 0  9999
2 44419  97.6832  20.3082 0007839 212.6995 147.3770 15.48622676252392
DUCHIFAT-3              
1 44854U 19089C   24022.88739577  .00013739  00000+0  80163-3 0  9999
2 44854  36.9576 213.5738 0009277 328.8893  31.1302 15.11314269226023
TIANYAN 01              
1 44881U 19093C   24023.41391748  .00001799  00000+0  22634-3 0  9990
2 44881  97.8430 102.9886 0015914  80.3812 279.9199 14.83200887221433
RS-44 & BREEZE-KM R/B   
1 44909U 19096E   24022.99132521  .00000034  00000+0  88211-4 0  9993
2 44909  82.5203 201.8920 0217952  33.2630 328.1954 12.79726232190275
BY70-2                  
1 45857U 20042B   24023.40170925  .00055673  00000+0  39160-2 0  9992
2 45857  97.9196 110.9677 0007566 342.3139  17.7822 15.04823212192470
SALSAT                  
1 46495U 20068K   24022.86904823  .00007574  00000+0  46132-3 0  9995
2 46495  97.7979 338.9602 0016573  92.0290 268.2837 15.10573228182206
RADFXSAT-2 (AO-109)     
1 47311U 21002C   24023.26186748  .00114507  00000+0  12608-2 0  9990
2 47311  60.6729 280.9986 0026966  68.7571 291.6410 15.62020502168352
UVSQ-SAT                
1 47438U 21006AB  24023.14479515  .00032950  00000+0  98135-3 0  9999
2 47438  97.3539  83.1070 0008408  28.6457 331.5246 15.34592019166258
LEDSAT                  
1 49069U 21073D   24023.16475029  .00014942  00000+0  70109-3 0  9995
2 49069  97.4580  95.7667 0022690  76.6933 283.6830 15.19518281134241
XW-3 (CAS-9)            
1 50466U 21131B   24023.43356519  .00001081  00000+0  36227-3 0  9998
2 50466  98.5376 109.1940 0004077 187.7890 172.3235 14.39318199109037
TEVEL-3                 
1 50988U 22002E   24023.28379215  .00057564  00000+0  14547-2 0  9993
2 50988  97.4048  95.3621 0005209 165.6490 194.4905 15.39591167112448
TEVEL-8                 
1 50989U 22002F   24023.31371888  .00053826  00000+0  13653-2 0  9990
2 50989  97.4065  95.4745 0005196 162.7845 197.3578 15.39495811112440
TEVEL-5                 
1 50998U 22002Q   24023.32433566  .00057780  00000+0  13792-2 0  9990
2 50998  97.4041  96.1562 0005969 158.0541 202.0962 15.41321484112503
TEVEL-6                 
1 50999U 22002R   24023.32420481  .00058030  00000+0  13864-2 0  9992
2 50999  97.4039  96.1426 0005981 157.8908 202.2598 15.41293520112504
TEVEL-1                 
1 51013U 22002AF  24023.30242312  .00054985  00000+0  13940-2 0  9993
2 51013  97.4039  95.2797 0005067 164.1780 195.9625 15.39506077112440
TEVEL-7                 
1 51062U 22002CG  24023.30981047  .00053436  00000+0  13528-2 0  9994
2 51062  97.4059  95.4409 0005183 163.4066 196.7350 15.39556695112441
TEVEL-4                 
1 51063U 22002CH  24023.32848158  .00053217  00000+0  13538-2 0  9990
2 51063  97.4059  95.4083 0005145 162.7649 197.3772 15.39409334112449
TEVEL-2                 
1 51069U 22002CP  24023.28407152  .00057097  00000+0  14422-2 0  9999
2 51069  97.4045  95.3295 0005137 165.3071 194.8325 15.39608536112444
GREENCUBE               
1 53106U 22080B   24021.26334195 -.00000003  00000+0  00000+0 0  9991
2 53106  70.1328 243.9205 0008307 137.0368 223.0941  6.42557688 35762
CYCLOPS (RS29S)         
1 53373U 22096D   24023.44780593  .00262134  00000+0  17887-2 0  9991
2 53373  97.3956 301.0672 0006000 101.9494 258.2443 15.74056830 81832
MONITOR-1 (RS32S)       
1 53374U 22096E   24023.45507067  .00187885  00000+0  16336-2 0  9993
2 53374  97.3901 300.1227 0005907  96.8544 263.3390 15.68458540 81781
KUZBASS-300 (RS34S)     
1 53375U 22096F   24023.48621914  .00086316  00000+0  12479-2 0  9996
2 53375  97.3993 298.2803 0004552  86.7538 273.4237 15.55624204 81652
UTMN (RS23S)            
1 53376U 22096G   24023.47101583  .00100572  00000+0  13221-2 0  9998
2 53376  97.3967 298.7253 0004770  93.3504 266.8298 15.58140875 81683
MIET-AIS (RS28S)        
1 53377U 22096H   24023.47027461  .00070379  00000+0  11175-2 0  9998
2 53377  97.4006 297.8865 0004017  87.9622 272.2091 15.53105411 81620
KAI-1 (RS26S)           
1 53378U 22096J   24023.48717973  .00050392  00000+0  94808-3 0  9992
2 53378  97.4051 296.8686 0003764  86.3309 273.8372 15.48391603 81559
ISOI (RS19S)            
1 53381U 22096M   24023.46286961  .00073281  00000+0  11085-2 0  9999
2 53381  97.4024 298.4748 0003181  65.3141 294.8443 15.54439161 81667
CUBESX-HSE-2 (RS21S)    
1 53383U 22096P   24023.43709406  .00093403  00000+0  12486-2 0  9996
2 53383  97.3979 298.9463 0003425  59.0606 301.0985 15.57723480 81691
SIREN (RS30S)           
1 53384U 22096Q   24023.45233351  .00054890  00000+0  93146-3 0  9990
2 53384  97.4022 297.7764 0002995  48.1225 312.0282 15.51313258 81616
GEOSCAN-EDELVEIS (RS20S)
1 53385U 22096R   24023.46918215  .00400194  00000+0  18997-2 0  9993
2 53385  97.3902 302.5060 0004315  86.9372 273.2390 15.81888372 81961
CAS-5A (FO-118)         
1 54684U 22167C   24023.46178249  .00024715  00000+0  10924-2 0  9993
2 54684  97.5844 166.0471 0011289 297.0886  62.9197 15.21643963 62082
STRATOSAT-TK 1 (RS52S)  
1 57167U 23091B   24023.48536656  .00016133  00000+0  10578-2 0  9991
2 57167  97.6365  77.3396 0015365 257.2086 102.7425 15.07670610 31579
UMKA 1 (RS40S)          
1 57172U 23091G   24023.47065414  .00006701  00000+0  46861-3 0  9990
2 57172  97.6367  77.0513 0015705 256.8387 103.1088 15.05522815 31551
CUBESX-HSE 3 (RS42S)    
1 57178U 23091N   24023.45035484  .00008509  00000+0  58459-3 0  9992
2 57178  97.6392  77.1797 0016833 251.4833 108.4566 15.06087732 31554
MONITOR-4 (RS57S)       
1 57182U 23091S   24023.46977000  .00008464  00000+0  58555-3 0  9994
2 57182  97.6391  77.1228 0016823 252.1388 107.8004 15.05833045 31554
MONITOR-2 (RS39S)       
1 57184U 23091U   24023.45976731  .00005274  00000+0  36617-3 0  9996
2 57184  97.6393  77.3017 0013074 244.6236 115.3637 15.05921791 31562
SVYATOBOR 1 (RS60S)     
1 57187U 23091X   24023.46139356  .00007608  00000+0  51457-3 0  9996
2 57187  97.6396  77.4562 0012733 242.2893 117.7043 15.06756040 31570
VIZARD-METEO (RS38S)    
1 57189U 23091Z   24023.38806230  .00008978  00000+0  59331-3 0  9991
2 57189  97.6385  77.5329 0011879 240.6032 119.4010 15.07570801 31572
NANOZOND 1 (RS49S)      
1 57190U 23091AA  24023.43320291  .00014350  00000+0  91405-3 0  9996
2 57190  97.6358  77.7076 0010619 247.0728 112.9380 15.08816323 31592
POLYTECH-UNIVERSE 3 (R*)
1 57191U 23091AB  24023.45373292  .00005360  00000+0  37291-3 0  9992
2 57191  97.6355  77.0684 0018671 264.1066  95.8032 15.05767018 31551
UTMN 2 (RS27S)          
1 57203U 23091AP  24023.34346020  .00009028  00000+0  60092-3 0  9993
2 57203  97.6391  77.4366 0012139 241.1655 118.8354 15.07302074 31561
ARCCUBE 1 (RS25S)       
1 57205U 23091AR  24023.48076169  .00016101  00000+0  10130-2 0  9991
2 57205  97.6343  77.7495 0010671 248.8326 111.1762 15.09241486 31609
KUZGTU 1 (RS47S)        
1 57217U 23091AV  24023.44986474  .00008131  00000+0  55970-3 0  9995
2 57217  97.6367  77.1134 0016695 252.8470 107.0929 15.06032458 31556
HADES-D (SO-121)        
1 58567U 23174CY  24023.14897187  .00033249  00000+0  16862-2 0  9999
2 58567  97.4747  99.9134 0015335  23.8016 336.3923 15.16764353 11566
